{
  "type": "FeatureCollection",
  "features": [
    {
      "type": "Feature",
      "properties": {
        "norad_id": 31206,
        "name": "FENGYUN 1C DEB",
        "group": "fengyun-1c-debris",
        "lat": -77.04819847404274,
        "lon": -65.58187060610759,
        "alt_km": 764.1958694415262,
        "timestamp": "2025-12-09T23:33:24.135726+00:00",
        "meta_object_name": "FENGYUN 1C DEB",
        "meta_object_id": "1999-025BKL",
        "meta_epoch": "2025-12-09T13:55:27.072480",
        "meta_mean_motion": 14.4047578,
        "meta_eccentricity": 0.0078074,
        "meta_inclination": 98.8432,
        "meta_ra_of_asc_node": 251.3995,
        "meta_arg_of_pericenter": 11.128,
        "meta_mean_anomaly": 349.1611,
        "meta_ephemeris_type": 0,
        "meta_classification_type": "U",
        "meta_norad_cat_id": 31206,
        "meta_element_set_no": 999,
        "meta_rev_at_epoch": 97800,
        "meta_bstar": 0.0012186037,
        "meta_mean_motion_dot": 3.971e-05,
        "meta_mean_motion_ddot": 0,
        "tle_line1": "1 31206U 99025BKL 25343.58017445  .00003971  00000+0  12186-2 0  9997",
        "tle_line2": "2 31206  98.8432 251.3995 0078074  11.1280 349.1611 14.40475780978000"
      },
      "geometry": {
        "type": "Point",
        "coordinates": [
          -65.58187060610759,
          -77.04819847404274
        ]
      }
    },
    {
      "type": "Feature",
      "properties": {
        "norad_id": 31208,
        "name": "FENGYUN 1C DEB",
        "group": "fengyun-1c-debris",
        "lat": -49.918647521152515,
        "lon": 138.5168583131591,
        "alt_km": 685.2138621225722,
        "timestamp": "2025-12-09T23:33:24.135738+00:00",
        "meta_object_name": "FENGYUN 1C DEB",
        "meta_object_id": "1999-025BKN",
        "meta_epoch": "2025-12-07T16:00:39.049632",
        "meta_mean_motion": 14.61608831,
        "meta_eccentricity": 0.00158712,
        "meta_inclination": 99.2415,
        "meta_ra_of_asc_node": 124.7772,
        "meta_arg_of_pericenter": 281.9215,
        "meta_mean_anomaly": 95.8313,
        "meta_ephemeris_type": 0,
        "meta_classification_type": "U",
        "meta_norad_cat_id": 31208,
        "meta_element_set_no": 999,
        "meta_rev_at_epoch": 70405,
        "meta_bstar": 0.0049127356,
        "meta_mean_motion_dot": 0.00024493,
        "meta_mean_motion_ddot": 0,
        "tle_line1": "1 31208U 99025BKN 25341.66711863  .00024493  00000+0  49127-2 0  9998",
        "tle_line2": "2 31208  99.2415 124.7772 0015871 281.9215  95.8313 14.61608831704059"
      },
      "geometry": {
        "type": "Point",
        "coordinates": [
          138.5168583131591,
          -49.918647521152515
        ]
      }
    },
    {
      "type": "Feature",
      "properties": {
        "norad_id": 31209,
        "name": "FENGYUN 1C DEB",
        "group": "fengyun-1c-debris",
        "lat": -27.49016861846366,
        "lon": 83.61150211700777,
        "alt_km": 738.8791691554297,
        "timestamp": "2025-12-09T23:33:24.135749+00:00",
        "meta_object_name": "FENGYUN 1C DEB",
        "meta_object_id": "1999-025BKP",
        "meta_epoch": "2025-12-08T12:44:49.042752",
        "meta_mean_motion": 14.43363715,
        "meta_eccentricity": 0.00214026,
        "meta_inclination": 98.8839,
        "meta_ra_of_asc_node": 77.4311,
        "meta_arg_of_pericenter": 358.4505,
        "meta_mean_anomaly": 1.6614,
        "meta_ephemeris_type": 0,
        "meta_classification_type": "U",
        "meta_norad_cat_id": 31209,
        "meta_element_set_no": 999,
        "meta_rev_at_epoch": 64747,
        "meta_bstar": 0.0033109963,
        "meta_mean_motion_dot": 0.0001117,
        "meta_mean_motion_ddot": 0,
        "tle_line1": "1 31209U 99025BKP 25342.53112318  .00011170  00000+0  33110-2 0  9999",
        "tle_line2": "2 31209  98.8839  77.4311 0021402 358.4505   1.6614 14.43363715647477"
      },
      "geometry": {
        "type": "Point",
        "coordinates": [
          83.61150211700777,
          -27.49016861846366
        ]
      }
    },
    {
      "type": "Feature",
      "properties": {
        "norad_id": 31210,
        "name": "FENGYUN 1C DEB",
        "group": "fengyun-1c-debris",
        "lat": 31.909185499576292,
        "lon": 170.57057184370996,
        "alt_km": 838.7835320246386,
        "timestamp": "2025-12-09T23:33:24.135759+00:00",
        "meta_object_name": "FENGYUN 1C DEB",
        "meta_object_id": "1999-025BKQ",
        "meta_epoch": "2025-12-09T11:40:39.671328",
        "meta_mean_motion": 14.11990166,
        "meta_eccentricity": 0.00170173,
        "meta_inclination": 98.7186,
        "meta_ra_of_asc_node": 344.6065,
        "meta_arg_of_pericenter": 164.1089,
        "meta_mean_anomaly": 348.9677,
        "meta_ephemeris_type": 0,
        "meta_classification_type": "U",
        "meta_norad_cat_id": 31210,
        "meta_element_set_no": 999,
        "meta_rev_at_epoch": 95921,
        "meta_bstar": 0.00055815394,
        "meta_mean_motion_dot": 9.8e-06,
        "meta_mean_motion_ddot": 0,
        "tle_line1": "1 31210U 99025BKQ 25343.48657027  .00000980  00000+0  55815-3 0  9991",
        "tle_line2": "2 31210  98.7186 344.6065 0017017 164.1089 348.9677 14.11990166959219"
      },
      "geometry": {
        "type": "Point",
        "coordinates": [
          170.57057184370996,
          31.909185499576292
        ]
      }
    },
    {
      "type": "Feature",
      "properties": {
        "norad_id": 31211,
        "name": "FENGYUN 1C DEB",
        "group": "fengyun-1c-debris",
        "lat": -37.051167964420905,
        "lon": -166.6718090219963,
        "alt_km": 849.9482933252048,
        "timestamp": "2025-12-09T23:33:24.135769+00:00",
        "meta_object_name": "FENGYUN 1C DEB",
        "meta_object_id": "1999-025BKR",
        "meta_epoch": "2025-12-06T20:08:03.397344",
        "meta_mean_motion": 14.2001942,
        "meta_eccentricity": 0.00510218,
        "meta_inclination": 98.6728,
        "meta_ra_of_asc_node": 16.8654,
        "meta_arg_of_pericenter": 106.1714,
        "meta_mean_anomaly": 254.5086,
        "meta_ephemeris_type": 0,
        "meta_classification_type": "U",
        "meta_norad_cat_id": 31211,
        "meta_element_set_no": 999,
        "meta_rev_at_epoch": 63209,
        "meta_bstar": 0.001766209,
        "meta_mean_motion_dot": 3.766e-05,
        "meta_mean_motion_ddot": 0,
        "tle_line1": "1 31211U 99025BKR 25340.83892821  .00003766  00000+0  17662-2 0  9993",
        "tle_line2": "2 31211  98.6728  16.8654 0051021 106.1714 254.5086 14.20019420632092"
      },
      "geometry": {
        "type": "Point",
        "coordinates": [
          -166.6718090219963,
          -37.051167964420905
        ]
      }
    },
    {
      "type": "Feature",
      "properties": {
        "norad_id": 31212,
        "name": "FENGYUN 1C DEB",
        "group": "fengyun-1c-debris",
        "lat": -79.49841559003715,
        "lon": 134.14814364076207,
        "alt_km": 851.9812687933627,
        "timestamp": "2025-12-09T23:33:24.135780+00:00",
        "meta_object_name": "FENGYUN 1C DEB",
        "meta_object_id": "1999-025BKS",
        "meta_epoch": "2025-11-25T01:25:48.692640",
        "meta_mean_motion": 14.12981607,
        "meta_eccentricity": 0.00745379,
        "meta_inclination": 99.223,
        "meta_ra_of_asc_node": 0.0078,
        "meta_arg_of_pericenter": 220.8092,
        "meta_mean_anomaly": 138.7482,
        "meta_ephemeris_type": 0,
        "meta_classification_type": "U",
        "meta_norad_cat_id": 31212,
        "meta_element_set_no": 999,
        "meta_rev_at_epoch": 95409,
        "meta_bstar": 0.0015990818,
        "meta_mean_motion_dot": 3.014e-05,
        "meta_mean_motion_ddot": 0,
        "tle_line1": "1 31212U 99025BKS 25329.05959135  .00003014  00000+0  15991-2 0  9996",
        "tle_line2": "2 31212  99.2230   0.0078 0074537 220.8092 138.7482 14.12981607954099"
      },
      "geometry": {
        "type": "Point",
        "coordinates": [
          134.14814364076207,
          -79.49841559003715
        ]
      }
    },
    {
      "type": "Feature",
      "properties": {
        "norad_id": 31215,
        "name": "FENGYUN 1C DEB",
        "group": "fengyun-1c-debris",
        "lat": 40.648818951955285,
        "lon": -179.97220149326054,
        "alt_km": 758.1085366247871,
        "timestamp": "2025-12-09T23:33:24.135790+00:00",
        "meta_object_name": "FENGYUN 1C DEB",
        "meta_object_id": "1999-025BKV",
        "meta_epoch": "2025-12-01T19:24:11.403648",
        "meta_mean_motion": 14.33696459,
        "meta_eccentricity": 0.00702274,
        "meta_inclination": 99.0744,
        "meta_ra_of_asc_node": 179.3473,
        "meta_arg_of_pericenter": 355.6358,
        "meta_mean_anomaly": 4.4204,
        "meta_ephemeris_type": 0,
        "meta_classification_type": "U",
        "meta_norad_cat_id": 31215,
        "meta_element_set_no": 999,
        "meta_rev_at_epoch": 96369,
        "meta_bstar": 0.00097709666,
        "meta_mean_motion_dot": 2.74e-05,
        "meta_mean_motion_ddot": 0,
        "tle_line1": "1 31215U 99025BKV 25335.80846532  .00002740  00000+0  97710-3 0  9990",
        "tle_line2": "2 31215  99.0744 179.3473 0070227 355.6358   4.4204 14.33696459963691"
      },
      "geometry": {
        "type": "Point",
        "coordinates": [
          -179.97220149326054,
          40.648818951955285
        ]
      }
    }
  ]
}